{
  "type": "FeatureCollection",
  "features": [
    {
      "type": "Feature",
      "properties": {
        "norad_id": 40069,
        "name": "METEOR-M 2",
        "group": "weather",
        "lat": 49.51464184543502,
        "lon": 167.5028227064552,
        "alt_km": 812.8860650142351,
        "timestamp": "2025-12-26T08:37:54.213171+00:00",
        "meta_object_name": "METEOR-M 2",
        "meta_object_id": "2014-037A",
        "meta_epoch": "2025-12-26T04:38:41.144064",
        "meta_mean_motion": 14.21392793,
        "meta_eccentricity": 0.0005673,
        "meta_inclination": 98.4922,
        "meta_ra_of_asc_node": 337.263,
        "meta_arg_of_pericenter": 167.9912,
        "meta_mean_anomaly": 192.1402,
        "meta_ephemeris_type": 0,
        "meta_classification_type": "U",
        "meta_norad_cat_id": 40069,
        "meta_element_set_no": 999,
        "meta_rev_at_epoch": 59474,
        "meta_bstar": 0.00023551,
        "meta_mean_motion_dot": 4.72e-06,
        "meta_mean_motion_ddot": 0,
        "tle_line1": "1 40069U 14037A   25360.19353176  .00000472  00000+0  23551-3 0  9996",
        "tle_line2": "2 40069  98.4922 337.2630 0005673 167.9912 192.1402 14.21392793594744"
      },
      "geometry": {
        "type": "Point",
        "coordinates": [
          167.5028227064552,
          49.51464184543502
        ]
      }
    },
    {
      "type": "Feature",
      "properties": {
        "norad_id": 40267,
        "name": "HIMAWARI-8",
        "group": "weather",
        "lat": 0.014877897273966064,
        "lon": 5.250181849855083,
        "alt_km": 35784.313243163626,
        "timestamp": "2025-12-26T08:37:54.213183+00:00",
        "meta_object_name": "HIMAWARI-8",
        "meta_object_id": "2014-060A",
        "meta_epoch": "2025-12-26T00:44:38.655744",
        "meta_mean_motion": 1.00270789,
        "meta_eccentricity": 9.99e-05,
        "meta_inclination": 0.0428,
        "meta_ra_of_asc_node": 196.6359,
        "meta_arg_of_pericenter": 108.3794,
        "meta_mean_anomaly": 301.5944,
        "meta_ephemeris_type": 0,
        "meta_classification_type": "U",
        "meta_norad_cat_id": 40267,
        "meta_element_set_no": 999,
        "meta_rev_at_epoch": 4102,
        "meta_bstar": 0,
        "meta_mean_motion_dot": -2.54e-06,
        "meta_mean_motion_ddot": 0,
        "tle_line1": "1 40267U 14060A   25360.03100296 -.00000254  00000+0  00000+0 0  9997",
        "tle_line2": "2 40267   0.0428 196.6359 0000999 108.3794 301.5944  1.00270789 41020"
      },
      "geometry": {
        "type": "Point",
        "coordinates": [
          5.250181849855083,
          0.014877897273966064
        ]
      }
    },
    {
      "type": "Feature",
      "properties": {
        "norad_id": 40367,
        "name": "FENGYUN 2G",
        "group": "weather",
        "lat": -4.867567310637668,
        "lon": -36.1999875404747,
        "alt_km": 35782.38191717265,
        "timestamp": "2025-12-26T08:37:54.213194+00:00",
        "meta_object_name": "FENGYUN 2G",
        "meta_object_id": "2014-090A",
        "meta_epoch": "2025-12-26T01:31:24.188160",
        "meta_mean_motion": 1.0028183,
        "meta_eccentricity": 0.0001733,
        "meta_inclination": 5.1989,
        "meta_ra_of_asc_node": 74.9322,
        "meta_arg_of_pericenter": 171.0452,
        "meta_mean_anomaly": 330.9574,
        "meta_ephemeris_type": 0,
        "meta_classification_type": "U",
        "meta_norad_cat_id": 40367,
        "meta_element_set_no": 999,
        "meta_rev_at_epoch": 4026,
        "meta_bstar": 0,
        "meta_mean_motion_dot": -2.82e-06,
        "meta_mean_motion_ddot": 0,
        "tle_line1": "1 40367U 14090A   25360.06347440 -.00000282  00000+0  00000+0 0  9999",
        "tle_line2": "2 40367   5.1989  74.9322 0001733 171.0452 330.9574  1.00281830 40261"
      },
      "geometry": {
        "type": "Point",
        "coordinates": [
          -36.1999875404747,
          -4.867567310637668
        ]
      }
    },
    {
      "type": "Feature",
      "properties": {
        "norad_id": 40732,
        "name": "METEOSAT-11 (MSG-4)",
        "group": "weather",
        "lat": 0.85359132882506,
        "lon": -126.21579009134261,
        "alt_km": 35783.320742763615,
        "timestamp": "2025-12-26T08:37:54.213207+00:00",
        "meta_object_name": "METEOSAT-11 (MSG-4)",
        "meta_object_id": "2015-034A",
        "meta_epoch": "2025-12-25T16:31:52.264704",
        "meta_mean_motion": 1.00271545,
        "meta_eccentricity": 6.999e-05,
        "meta_inclination": 2.7688,
        "meta_ra_of_asc_node": 71.966,
        "meta_arg_of_pericenter": 136.703,
        "meta_mean_anomaly": 142.9271,
        "meta_ephemeris_type": 0,
        "meta_classification_type": "U",
        "meta_norad_cat_id": 40732,
        "meta_element_set_no": 999,
        "meta_rev_at_epoch": 547,
        "meta_bstar": 0,
        "meta_mean_motion_dot": 8.2e-07,
        "meta_mean_motion_ddot": 0,
        "tle_line1": "1 40732U 15034A   25359.68879936  .00000082  00000+0  00000+0 0  9997",
        "tle_line2": "2 40732   2.7688  71.9660 0000699 136.7030 142.9271  1.00271545  5479"
      },
      "geometry": {
        "type": "Point",
        "coordinates": [
          -126.21579009134261,
          0.85359132882506
        ]
      }
    },
    {
      "type": "Feature",
      "properties": {
        "norad_id": 41105,
        "name": "ELEKTRO-L 2",
        "group": "weather",
        "lat": 4.22962448957738,
        "lon": -149.7576186230247,
        "alt_km": 35780.46405159437,
        "timestamp": "2025-12-26T08:37:54.213220+00:00",
        "meta_object_name": "ELEKTRO-L 2",
        "meta_object_id": "2015-074A",
        "meta_epoch": "2025-12-26T04:33:21.945312",
        "meta_mean_motion": 1.00271693,
        "meta_eccentricity": 0.000362,
        "meta_inclination": 6.2573,
        "meta_ra_of_asc_node": 72.6685,
        "meta_arg_of_pericenter": 207.9868,
        "meta_mean_anomaly": 228.1548,
        "meta_ephemeris_type": 0,
        "meta_classification_type": "U",
        "meta_norad_cat_id": 41105,
        "meta_element_set_no": 999,
        "meta_rev_at_epoch": 3677,
        "meta_bstar": 0,
        "meta_mean_motion_dot": -9.7e-07,
        "meta_mean_motion_ddot": 0,
        "tle_line1": "1 41105U 15074A   25360.18983733 -.00000097  00000+0  00000+0 0  9991",
        "tle_line2": "2 41105   6.2573  72.6685 0003620 207.9868 228.1548  1.00271693 36773"
      },
      "geometry": {
        "type": "Point",
        "coordinates": [
          -149.7576186230247,
          4.22962448957738
        ]
      }
    },
    {
      "type": "Feature",
      "properties": {
        "norad_id": 41752,
        "name": "INSAT-3DR",
        "group": "weather",
        "lat": -0.08359526612449426,
        "lon": -61.36316194510501,
        "alt_km": 35732.22395925199,
        "timestamp": "2025-12-26T08:37:54.213232+00:00",
        "meta_object_name": "INSAT-3DR",
        "meta_object_id": "2016-054A",
        "meta_epoch": "2025-12-24T15:09:51.705216",
        "meta_mean_motion": 1.00271379,
        "meta_eccentricity": 0.00142635,
        "meta_inclination": 0.1198,
        "meta_ra_of_asc_node": 86.2568,
        "meta_arg_of_pericenter": 185.6475,
        "meta_mean_anomaly": 122.9543,
        "meta_ephemeris_type": 0,
        "meta_classification_type": "U",
        "meta_norad_cat_id": 41752,
        "meta_element_set_no": 999,
        "meta_rev_at_epoch": 3406,
        "meta_bstar": 0,
        "meta_mean_motion_dot": -5.6e-07,
        "meta_mean_motion_ddot": 0,
        "tle_line1": "1 41752U 16054A   25358.63184844 -.00000056  00000+0  00000+0 0  9996",
        "tle_line2": "2 41752   0.1198  86.2568 0014263 185.6475 122.9543  1.00271379 34066"
      },
      "geometry": {
        "type": "Point",
        "coordinates": [
          -61.36316194510501,
          -0.08359526612449426
        ]
      }
    },
    {
      "type": "Feature",
      "properties": {
        "norad_id": 41836,
        "name": "HIMAWARI-9",
        "group": "weather",
        "lat": -0.012936077931651531,
        "lon": 5.369459776412219,
        "alt_km": 35783.17052873775,
        "timestamp": "2025-12-26T08:37:54.213245+00:00",
        "meta_object_name": "HIMAWARI-9",
        "meta_object_id": "2016-064A",
        "meta_epoch": "2025-12-26T00:44:38.655744",
        "meta_mean_motion": 1.00271993,
        "meta_eccentricity": 0.0001079,
        "meta_inclination": 0.0124,
        "meta_ra_of_asc_node": 80.1849,
        "meta_arg_of_pericenter": 234.8379,
        "meta_mean_anomaly": 291.7052,
        "meta_ephemeris_type": 0,
        "meta_classification_type": "U",
        "meta_norad_cat_id": 41836,
        "meta_element_set_no": 999,
        "meta_rev_at_epoch": 3347,
        "meta_bstar": 0,
        "meta_mean_motion_dot": -2.53e-06,
        "meta_mean_motion_ddot": 0,
        "tle_line1": "1 41836U 16064A   25360.03100296 -.00000253  00000+0  00000+0 0  9995",
        "tle_line2": "2 41836   0.0124  80.1849 0001079 234.8379 291.7052  1.00271993 33479"
      },
      "geometry": {
        "type": "Point",
        "coordinates": [
          5.369459776412219,
          -0.012936077931651531
        ]
      }
    }
  ]
}